SENTINEL-6              
1 46984U 20086A   24102.94518228 -.00000038  00000+0  98096-4 0  9992
2 46984  66.0442 348.8563 0007782 271.2255  88.7869 12.80929673158344
